[{"OBJECT_NAME":"ONEWEB-0431","OBJECT_ID":"2022-012J","EPOCH":"2026-01-11T03:25:57.626976","MEAN_MOTION":13.1037225,"ECCENTRICITY":0.00011596,"INCLINATION":87.8783,"RA_OF_ASC_NODE":67.5658,"ARG_OF_PERICENTER":109.1398,"MEAN_ANOMALY":250.9855,"EPHEMERIS_TYPE":0,"CLASSIFICATION_TYPE":"U","NORAD_CAT_ID":51630,"ELEMENT_SET_NO":999,"REV_AT_EPOCH":18877,"BSTAR":0.0017977185,"MEAN_MOTION_DOT":6.4e-6,"MEAN_MOTION_DDOT":0},{"OBJECT_NAME":"ONEWEB-0434","OBJECT_ID":"2022-012K","EPOCH":"2026-01-11T04:42:50.585184","MEAN_MOTION":13.10376463,"ECCENTRICITY":0.00024641,"INCLINATION":87.878,"RA_OF_ASC_NODE":67.5887,"ARG_OF_PERICENTER":99.9028,"MEAN_ANOMALY":260.2377,"EPHEMERIS_TYPE":0,"CLASSIFICATION_TYPE":"U","NORAD_CAT_ID":51631,"ELEMENT_SET_NO":999,"REV_AT_EPOCH":18876,"BSTAR":9.3778699e-5,"MEAN_MOTION_DOT":4.5e-7,"MEAN_MOTION_DDOT":0},{"OBJECT_NAME":"ONEWEB-0435","OBJECT_ID":"2022-012L","EPOCH":"2026-01-11T04:54:36.081792","MEAN_MOTION":13.10375262,"ECCENTRICITY":0.00015906,"INCLINATION":87.8781,"RA_OF_ASC_NODE":67.5773,"ARG_OF_PERICENTER":87.2699,"MEAN_ANOMALY":272.861,"EPHEMERIS_TYPE":0,"CLASSIFICATION_TYPE":"U","NORAD_CAT_ID":51632,"ELEMENT_SET_NO":999,"REV_AT_EPOCH":18875,"BSTAR":0.0010774069,"MEAN_MOTION_DOT":3.89e-6,"MEAN_MOTION_DDOT":0},{"OBJECT_NAME":"ONEWEB-0436","OBJECT_ID":"2022-012M","EPOCH":"2026-01-11T02:24:24.787296","MEAN_MOTION":13.17650175,"ECCENTRICITY":0.00016053,"INCLINATION":87.9095,"RA_OF_ASC_NODE":37.0605,"ARG_OF_PERICENTER":89.2849,"MEAN_ANOMALY":270.8467,"EPHEMERIS_TYPE":0,"CLASSIFICATION_TYPE":"U","NORAD_CAT_ID":51633,"ELEMENT_SET_NO":999,"REV_AT_EPOCH":19299,"BSTAR":5.07149e-6,"MEAN_MOTION_DOT":1.5e-7,"MEAN_MOTION_DDOT":0},{"OBJECT_NAME":"ONEWEB-0438","OBJECT_ID":"2022-012N","EPOCH":"2026-01-11T04:30:40.816224","MEAN_MOTION":13.1037571,"ECCENTRICITY":0.00019595,"INCLINATION":87.878,"RA_OF_ASC_NODE":67.5816,"ARG_OF_PERICENTER":102.0569,"MEAN_ANOMALY":258.0778,"EPHEMERIS_TYPE":0,"CLASSIFICATION_TYPE":"U","NORAD_CAT_ID":51634,"ELEMENT_SET_NO":999,"REV_AT_EPOCH":18878,"BSTAR":-0.0010527704,"MEAN_MOTION_DOT":-3.55e-6,"MEAN_MOTION_DDOT":0},{"OBJECT_NAME":"ONEWEB-0439","OBJECT_ID":"2022-012P","EPOCH":"2026-01-11T04:35:27.699648","MEAN_MOTION":13.10375623,"ECCENTRICITY":0.00018065,"INCLINATION":87.8783,"RA_OF_ASC_NODE":67.5697,"ARG_OF_PERICENTER":97.5633,"MEAN_ANOMALY":262.57,"EPHEMERIS_TYPE":0,"CLASSIFICATION_TYPE":"U","NORAD_CAT_ID":51635,"ELEMENT_SET_NO":999,"REV_AT_EPOCH":18876,"BSTAR":-0.00059032575,"MEAN_MOTION_DOT":-1.93e-6,"MEAN_MOTION_DDOT":0},{"OBJECT_NAME":"ONEWEB-0442","OBJECT_ID":"2022-012Q","EPOCH":"2026-01-11T07:41:32.284320","MEAN_MOTION":13.17652419,"ECCENTRICITY":0.00023446,"INCLINATION":87.9083,"RA_OF_ASC_NODE":37.0614,"ARG_OF_PERICENTER":103.8121,"MEAN_ANOMALY":256.3271,"EPHEMERIS_TYPE":0,"CLASSIFICATION_TYPE":"U","NORAD_CAT_ID":51636,"ELEMENT_SET_NO":999,"REV_AT_EPOCH":19301,"BSTAR":0.001629016,"MEAN_MOTION_DOT":6.45e-6,"MEAN_MOTION_DDOT":0},{"OBJECT_NAME":"ONEWEB-0443","OBJECT_ID":"2022-012R","EPOCH":"2026-01-11T02:41:25.568736","MEAN_MOTION":13.17649159,"ECCENTRICITY":0.00020812,"INCLINATION":87.9082,"RA_OF_ASC_NODE":37.1068,"ARG_OF_PERICENTER":89.6714,"MEAN_ANOMALY":270.4656,"EPHEMERIS_TYPE":0,"CLASSIFICATION_TYPE":"U","NORAD_CAT_ID":51637,"ELEMENT_SET_NO":999,"REV_AT_EPOCH":19303,"BSTAR":3.7027345e-5,"MEAN_MOTION_DOT":2.7e-7,"MEAN_MOTION_DDOT":0},{"OBJECT_NAME":"ONEWEB-0444","OBJECT_ID":"2022-012S","EPOCH":"2026-01-11T04:21:06.719328","MEAN_MOTION":13.10374217,"ECCENTRICITY":0.00017716,"INCLINATION":87.8779,"RA_OF_ASC_NODE":67.5703,"ARG_OF_PERICENTER":98.5578,"MEAN_ANOMALY":261.5751,"EPHEMERIS_TYPE":0,"CLASSIFICATION_TYPE":"U","NORAD_CAT_ID":51638,"ELEMENT_SET_NO":999,"REV_AT_EPOCH":18877,"BSTAR":-0.0017287751,"MEAN_MOTION_DOT":-5.91e-6,"MEAN_MOTION_DDOT":0},{"OBJECT_NAME":"ONEWEB-0445","OBJECT_ID":"2022-012T","EPOCH":"2026-01-11T04:52:11.885376","MEAN_MOTION":13.10374831,"ECCENTRICITY":0.00018012,"INCLINATION":87.8797,"RA_OF_ASC_NODE":67.5378,"ARG_OF_PERICENTER":107.2849,"MEAN_ANOMALY":252.8475,"EPHEMERIS_TYPE":0,"CLASSIFICATION_TYPE":"U","NORAD_CAT_ID":51639,"ELEMENT_SET_NO":999,"REV_AT_EPOCH":18878,"BSTAR":0.00084176832,"MEAN_MOTION_DOT":3.07e-6,"MEAN_MOTION_DDOT":0},{"OBJECT_NAME":"ONEWEB-0446","OBJECT_ID":"2022-012U","EPOCH":"2026-01-11T04:18:42.962688","MEAN_MOTION":13.10373646,"ECCENTRICITY":0.00017446,"INCLINATION":87.8779,"RA_OF_ASC_NODE":67.5872,"ARG_OF_PERICENTER":105.4767,"MEAN_ANOMALY":254.6553,"EPHEMERIS_TYPE":0,"CLASSIFICATION_TYPE":"U","NORAD_CAT_ID":51640,"ELEMENT_SET_NO":999,"REV_AT_EPOCH":18876,"BSTAR":-0.0017630186,"MEAN_MOTION_DOT":-6.03e-6,"MEAN_MOTION_DDOT":0},{"OBJECT_NAME":"ONEWEB-0448","OBJECT_ID":"2022-012V","EPOCH":"2026-01-11T04:25:53.303808","MEAN_MOTION":13.10380613,"ECCENTRICITY":0.0002048,"INCLINATION":87.8777,"RA_OF_ASC_NODE":67.5851,"ARG_OF_PERICENTER":94.4859,"MEAN_ANOMALY":265.6502,"EPHEMERIS_TYPE":0,"CLASSIFICATION_TYPE":"U","NORAD_CAT_ID":51641,"ELEMENT_SET_NO":999,"REV_AT_EPOCH":18873,"BSTAR":-0.0048975492,"MEAN_MOTION_DOT":-1.697e-5,"MEAN_MOTION_DDOT":0},{"OBJECT_NAME":"ONEWEB-0449","OBJECT_ID":"2022-012W","EPOCH":"2026-01-11T04:33:04.228992","MEAN_MOTION":13.10375266,"ECCENTRICITY":0.00022545,"INCLINATION":87.8788,"RA_OF_ASC_NODE":67.5581,"ARG_OF_PERICENTER":100.2006,"MEAN_ANOMALY":259.9375,"EPHEMERIS_TYPE":0,"CLASSIFICATION_TYPE":"U","NORAD_CAT_ID":51642,"ELEMENT_SET_NO":999,"REV_AT_EPOCH":18874,"BSTAR":-0.00087626414,"MEAN_MOTION_DOT":-2.93e-6,"MEAN_MOTION_DDOT":0},{"OBJECT_NAME":"ONEWEB-0451","OBJECT_ID":"2022-012X","EPOCH":"2026-01-11T07:47:36.324672","MEAN_MOTION":13.17649473,"ECCENTRICITY":0.00018991,"INCLINATION":87.9096,"RA_OF_ASC_NODE":37.0109,"ARG_OF_PERICENTER":93.0817,"MEAN_ANOMALY":267.0532,"EPHEMERIS_TYPE":0,"CLASSIFICATION_TYPE":"U","NORAD_CAT_ID":51643,"ELEMENT_SET_NO":999,"REV_AT_EPOCH":19300,"BSTAR":-8.0674585e-5,"MEAN_MOTION_DOT":-1.8e-7,"MEAN_MOTION_DDOT":0},{"OBJECT_NAME":"ONEWEB-0452","OBJECT_ID":"2022-012Y","EPOCH":"2026-01-11T07:45:11.024064","MEAN_MOTION":13.17639008,"ECCENTRICITY":0.00020232,"INCLINATION":87.908,"RA_OF_ASC_NODE":37.0624,"ARG_OF_PERICENTER":89.5017,"MEAN_ANOMALY":270.6346,"EPHEMERIS_TYPE":0,"CLASSIFICATION_TYPE":"U","NORAD_CAT_ID":51644,"ELEMENT_SET_NO":999,"REV_AT_EPOCH":19301,"BSTAR":-0.0027294993,"MEAN_MOTION_DOT":-1.047e-5,"MEAN_MOTION_DDOT":0},{"OBJECT_NAME":"ONEWEB-0456","OBJECT_ID":"2022-012AA","EPOCH":"2026-01-11T04:47:25.290528","MEAN_MOTION":13.10376224,"ECCENTRICITY":0.00016508,"INCLINATION":87.8797,"RA_OF_ASC_NODE":67.5286,"ARG_OF_PERICENTER":95.8739,"MEAN_ANOMALY":264.2576,"EPHEMERIS_TYPE":0,"CLASSIFICATION_TYPE":"U","NORAD_CAT_ID":51646,"ELEMENT_SET_NO":999,"REV_AT_EPOCH":18878,"BSTAR":0.00045339519,"MEAN_MOTION_DOT":1.71e-6,"MEAN_MOTION_DDOT":0},{"OBJECT_NAME":"ONEWEB-0457","OBJECT_ID":"2022-012AB","EPOCH":"2026-01-11T04:13:56.423136","MEAN_MOTION":13.10372848,"ECCENTRICITY":0.00020399,"INCLINATION":87.8777,"RA_OF_ASC_NODE":67.5751,"ARG_OF_PERICENTER":112.6739,"MEAN_ANOMALY":247.4604,"EPHEMERIS_TYPE":0,"CLASSIFICATION_TYPE":"U","NORAD_CAT_ID":51647,"ELEMENT_SET_NO":999,"REV_AT_EPOCH":18878,"BSTAR":-0.0018825757,"MEAN_MOTION_DOT":-6.44e-6,"MEAN_MOTION_DDOT":0}]
