ONEWEB-0431             
1 51630U 22012J   26011.14302809  .00000640  00000+0  17977-2 0  9991
2 51630  87.8783  67.5658 0001159 109.1398 250.9855 13.10372250188771
ONEWEB-0434             
1 51631U 22012K   26011.19641881  .00000045  00000+0  93779-4 0  9998
2 51631  87.8780  67.5887 0002464  99.9028 260.2377 13.10376463188761
ONEWEB-0435             
1 51632U 22012L   26011.20458428  .00000389  00000+0  10774-2 0  9997
2 51632  87.8781  67.5773 0001590  87.2699 272.8610 13.10375262188754
ONEWEB-0436             
1 51633U 22012M   26011.10028689  .00000015  00000+0  50715-5 0  9997
2 51633  87.9095  37.0605 0001605  89.2849 270.8467 13.17650175192991
ONEWEB-0438             
1 51634U 22012N   26011.18797241 -.00000355  00000+0 -10528-2 0  9997
2 51634  87.8780  67.5816 0001959 102.0569 258.0778 13.10375710188786
ONEWEB-0439             
1 51635U 22012P   26011.19129282 -.00000193  00000+0 -59033-3 0  9998
2 51635  87.8783  67.5697 0001806  97.5633 262.5700 13.10375623188764
ONEWEB-0442             
1 51636U 22012Q   26011.32051255  .00000645  00000+0  16290-2 0  9995
2 51636  87.9083  37.0614 0002344 103.8121 256.3271 13.17652419193017
ONEWEB-0443             
1 51637U 22012R   26011.11210149  .00000027  00000+0  37027-4 0  9999
2 51637  87.9082  37.1068 0002081  89.6714 270.4656 13.17649159193031
ONEWEB-0444             
1 51638U 22012S   26011.18132777 -.00000591  00000+0 -17288-2 0  9990
2 51638  87.8779  67.5703 0001771  98.5578 261.5751 13.10374217188774
ONEWEB-0445             
1 51639U 22012T   26011.20291534  .00000307  00000+0  84177-3 0  9996
2 51639  87.8797  67.5378 0001801 107.2849 252.8475 13.10374831188785
ONEWEB-0446             
1 51640U 22012U   26011.17966392 -.00000603  00000+0 -17630-2 0  9995
2 51640  87.8779  67.5872 0001744 105.4767 254.6553 13.10373646188769
ONEWEB-0448             
1 51641U 22012V   26011.18464472 -.00001697  00000+0 -48975-2 0  9999
2 51641  87.8777  67.5851 0002048  94.4859 265.6502 13.10380613188737
ONEWEB-0449             
1 51642U 22012W   26011.18963228 -.00000293  00000+0 -87626-3 0  9991
2 51642  87.8788  67.5581 0002254 100.2006 259.9375 13.10375266188742
ONEWEB-0451             
1 51643U 22012X   26011.32472598 -.00000018  00000+0 -80675-4 0  9996
2 51643  87.9096  37.0109 0001899  93.0817 267.0532 13.17649473193008
ONEWEB-0452             
1 51644U 22012Y   26011.32304426 -.00001047  00000+0 -27295-2 0  9991
2 51644  87.9080  37.0624 0002023  89.5017 270.6346 13.17639008193013
ONEWEB-0456             
1 51646U 22012AA  26011.19959827  .00000171  00000+0  45340-3 0  9996
2 51646  87.8797  67.5286 0001650  95.8739 264.2576 13.10376224188780
ONEWEB-0457             
1 51647U 22012AB  26011.17634749 -.00000644  00000+0 -18826-2 0  9993
2 51647  87.8777  67.5751 0002039 112.6739 247.4604 13.10372848188789
